KUIPER-00234            
1 68581U 26072J   26102.25002315 -.00020833  00000+0 -53361-3 0  9992
2 68581  51.8757 135.7487 0002298  97.3520  21.7389 15.38346401  1304
KUIPER-00236            
1 68582U 26072K   26102.25002315 -.00021074  00000+0 -54160-3 0  9999
2 68582  51.8760 135.7491 0002746 100.8539  17.1369 15.38250443  1309
KUIPER-00244            
1 68583U 26072L   26102.25002315 -.00021611  00000+0 -56261-3 0  9991
2 68583  51.8757 135.7751 0004092 122.0508 343.7040 15.37866841  2458
KUIPER-00253            
1 68584U 26072M   26102.25002315 -.00022080  00000+0 -58292-3 0  9999
2 68584  51.8715 135.8054 0005724 129.7603 323.8727 15.37441925  2333
KUIPER-00254            
1 68585U 26072N   26102.25002315 -.00022531  00000+0 -60647-3 0  9998
2 68585  51.8716 135.8384 0007793 134.7474 302.6242 15.36843666  1301
KUIPER-00263            
1 68586U 26072P   26102.25002315 -.00020604  00000+0 -52630-3 0  9991
2 68586  51.8766 135.7339 0002021  68.9592  55.2007 15.38424260  1301
KUIPER-00269            
1 68587U 26072Q   26102.25002315 -.00021891  00000+0 -57522-3 0  9996
2 68587  51.8740 135.7898 0004628 112.8866 347.2222 15.37587940  2153
KUIPER-00272            
1 68588U 26072R   26102.25002315 -.00022161  00000+0 -58675-3 0  9998
2 68588  51.8724 135.8089 0005963 126.8687 324.5850 15.37354006  1304
KUIPER-00285            
1 68589U 26072S   26102.25002315 -.00022231  00000+0 -59034-3 0  9997
2 68589  51.8733 135.8143 0006459 132.8178 315.5957 15.37262564  2316
KUIPER-00286            
1 68590U 26072T   26102.25002315 -.00021824  00000+0 -57164-3 0  9998
2 68590  51.8732 135.7896 0004312 116.1110 344.7011 15.37684600  1300
KUIPER-00289            
1 68591U 26072U   26102.25002315 -.00024030  00000+0 -66589-3 0  9992
2 68591  51.8650 135.8944 0011052 148.5071 261.8801 15.35950406  2382
KUIPER-00290            
1 68592U 26072V   26102.25002315 -.00024027  00000+0 -66382-3 0  9990
2 68592  51.8636 135.8887 0011049 144.8708 268.1838 15.36043451  1300
KUIPER-00293            
1 68593U 26072W   26102.25002315 -.00023976  00000+0 -67000-3 0  9991
2 68593  51.8632 135.9101 0012068 151.3128 251.1955 15.35675666  1308
KUIPER-00294            
1 68594U 26072X   26102.25002315 -.00024015  00000+0 -65999-3 0  9992
2 68594  51.8674 135.8772 0009889 145.8584 272.9721 15.36219813  1580
KUIPER-00296            
1 68595U 26072Y   26102.25002315 -.00023917  00000+0 -64930-3 0  9997
2 68595  51.8696 135.8557 0008648 139.6606 289.5774 15.36609531  1306
KUIPER-00297            
1 68596U 26072Z   26102.25002315 -.00024035  00000+0 -66230-3 0  9995
2 68596  51.8622 135.8833 0010386 146.3584 269.2461 15.36131898  2254
