[{"OBJECT_NAME":"KUIPER-00234","OBJECT_ID":"2026-072J","EPOCH":"2026-04-12T06:00:02.000160","MEAN_MOTION":15.38346401,"ECCENTRICITY":0.00022982,"INCLINATION":51.8757,"RA_OF_ASC_NODE":135.7487,"ARG_OF_PERICENTER":97.352,"MEAN_ANOMALY":21.7389,"EPHEMERIS_TYPE":0,"CLASSIFICATION_TYPE":"U","NORAD_CAT_ID":68581,"ELEMENT_SET_NO":999,"REV_AT_EPOCH":130,"BSTAR":-0.0005336137,"MEAN_MOTION_DOT":-0.00020833,"MEAN_MOTION_DDOT":0},{"OBJECT_NAME":"KUIPER-00236","OBJECT_ID":"2026-072K","EPOCH":"2026-04-12T06:00:02.000160","MEAN_MOTION":15.38250443,"ECCENTRICITY":0.0002746,"INCLINATION":51.876,"RA_OF_ASC_NODE":135.7491,"ARG_OF_PERICENTER":100.8539,"MEAN_ANOMALY":17.1369,"EPHEMERIS_TYPE":0,"CLASSIFICATION_TYPE":"U","NORAD_CAT_ID":68582,"ELEMENT_SET_NO":999,"REV_AT_EPOCH":130,"BSTAR":-0.00054159825,"MEAN_MOTION_DOT":-0.00021074,"MEAN_MOTION_DDOT":0},{"OBJECT_NAME":"KUIPER-00244","OBJECT_ID":"2026-072L","EPOCH":"2026-04-12T06:00:02.000160","MEAN_MOTION":15.37866841,"ECCENTRICITY":0.00040927,"INCLINATION":51.8757,"RA_OF_ASC_NODE":135.7751,"ARG_OF_PERICENTER":122.0508,"MEAN_ANOMALY":343.704,"EPHEMERIS_TYPE":0,"CLASSIFICATION_TYPE":"U","NORAD_CAT_ID":68583,"ELEMENT_SET_NO":999,"REV_AT_EPOCH":245,"BSTAR":-0.00056261419,"MEAN_MOTION_DOT":-0.00021611,"MEAN_MOTION_DDOT":0},{"OBJECT_NAME":"KUIPER-00253","OBJECT_ID":"2026-072M","EPOCH":"2026-04-12T06:00:02.000160","MEAN_MOTION":15.37441925,"ECCENTRICITY":0.00057249,"INCLINATION":51.8715,"RA_OF_ASC_NODE":135.8054,"ARG_OF_PERICENTER":129.7603,"MEAN_ANOMALY":323.8727,"EPHEMERIS_TYPE":0,"CLASSIFICATION_TYPE":"U","NORAD_CAT_ID":68584,"ELEMENT_SET_NO":999,"REV_AT_EPOCH":233,"BSTAR":-0.0005829219,"MEAN_MOTION_DOT":-0.0002208,"MEAN_MOTION_DDOT":0},{"OBJECT_NAME":"KUIPER-00254","OBJECT_ID":"2026-072N","EPOCH":"2026-04-12T06:00:02.000160","MEAN_MOTION":15.36843666,"ECCENTRICITY":0.00077932,"INCLINATION":51.8716,"RA_OF_ASC_NODE":135.8384,"ARG_OF_PERICENTER":134.7474,"MEAN_ANOMALY":302.6242,"EPHEMERIS_TYPE":0,"CLASSIFICATION_TYPE":"U","NORAD_CAT_ID":68585,"ELEMENT_SET_NO":999,"REV_AT_EPOCH":130,"BSTAR":-0.00060646748,"MEAN_MOTION_DOT":-0.00022531,"MEAN_MOTION_DDOT":0},{"OBJECT_NAME":"KUIPER-00263","OBJECT_ID":"2026-072P","EPOCH":"2026-04-12T06:00:02.000160","MEAN_MOTION":15.3842426,"ECCENTRICITY":0.00020215,"INCLINATION":51.8766,"RA_OF_ASC_NODE":135.7339,"ARG_OF_PERICENTER":68.9592,"MEAN_ANOMALY":55.2007,"EPHEMERIS_TYPE":0,"CLASSIFICATION_TYPE":"U","NORAD_CAT_ID":68586,"ELEMENT_SET_NO":999,"REV_AT_EPOCH":130,"BSTAR":-0.00052630193,"MEAN_MOTION_DOT":-0.00020604,"MEAN_MOTION_DDOT":0},{"OBJECT_NAME":"KUIPER-00269","OBJECT_ID":"2026-072Q","EPOCH":"2026-04-12T06:00:02.000160","MEAN_MOTION":15.3758794,"ECCENTRICITY":0.00046286,"INCLINATION":51.874,"RA_OF_ASC_NODE":135.7898,"ARG_OF_PERICENTER":112.8866,"MEAN_ANOMALY":347.2222,"EPHEMERIS_TYPE":0,"CLASSIFICATION_TYPE":"U","NORAD_CAT_ID":68587,"ELEMENT_SET_NO":999,"REV_AT_EPOCH":215,"BSTAR":-0.00057522067,"MEAN_MOTION_DOT":-0.00021891,"MEAN_MOTION_DDOT":0},{"OBJECT_NAME":"KUIPER-00272","OBJECT_ID":"2026-072R","EPOCH":"2026-04-12T06:00:02.000160","MEAN_MOTION":15.37354006,"ECCENTRICITY":0.00059637,"INCLINATION":51.8724,"RA_OF_ASC_NODE":135.8089,"ARG_OF_PERICENTER":126.8687,"MEAN_ANOMALY":324.585,"EPHEMERIS_TYPE":0,"CLASSIFICATION_TYPE":"U","NORAD_CAT_ID":68588,"ELEMENT_SET_NO":999,"REV_AT_EPOCH":130,"BSTAR":-0.00058675429,"MEAN_MOTION_DOT":-0.00022161,"MEAN_MOTION_DDOT":0},{"OBJECT_NAME":"KUIPER-00285","OBJECT_ID":"2026-072S","EPOCH":"2026-04-12T06:00:02.000160","MEAN_MOTION":15.37262564,"ECCENTRICITY":0.00064594,"INCLINATION":51.8733,"RA_OF_ASC_NODE":135.8143,"ARG_OF_PERICENTER":132.8178,"MEAN_ANOMALY":315.5957,"EPHEMERIS_TYPE":0,"CLASSIFICATION_TYPE":"U","NORAD_CAT_ID":68589,"ELEMENT_SET_NO":999,"REV_AT_EPOCH":231,"BSTAR":-0.00059034409,"MEAN_MOTION_DOT":-0.00022231,"MEAN_MOTION_DDOT":0},{"OBJECT_NAME":"KUIPER-00286","OBJECT_ID":"2026-072T","EPOCH":"2026-04-12T06:00:02.000160","MEAN_MOTION":15.376846,"ECCENTRICITY":0.00043124,"INCLINATION":51.8732,"RA_OF_ASC_NODE":135.7896,"ARG_OF_PERICENTER":116.111,"MEAN_ANOMALY":344.7011,"EPHEMERIS_TYPE":0,"CLASSIFICATION_TYPE":"U","NORAD_CAT_ID":68590,"ELEMENT_SET_NO":999,"REV_AT_EPOCH":130,"BSTAR":-0.00057164302,"MEAN_MOTION_DOT":-0.00021824,"MEAN_MOTION_DDOT":0},{"OBJECT_NAME":"KUIPER-00289","OBJECT_ID":"2026-072U","EPOCH":"2026-04-12T06:00:02.000160","MEAN_MOTION":15.35950406,"ECCENTRICITY":0.00110529,"INCLINATION":51.865,"RA_OF_ASC_NODE":135.8944,"ARG_OF_PERICENTER":148.5071,"MEAN_ANOMALY":261.8801,"EPHEMERIS_TYPE":0,"CLASSIFICATION_TYPE":"U","NORAD_CAT_ID":68591,"ELEMENT_SET_NO":999,"REV_AT_EPOCH":238,"BSTAR":-0.00066588935,"MEAN_MOTION_DOT":-0.0002403,"MEAN_MOTION_DDOT":0},{"OBJECT_NAME":"KUIPER-00290","OBJECT_ID":"2026-072V","EPOCH":"2026-04-12T06:00:02.000160","MEAN_MOTION":15.36043451,"ECCENTRICITY":0.00110496,"INCLINATION":51.8636,"RA_OF_ASC_NODE":135.8887,"ARG_OF_PERICENTER":144.8708,"MEAN_ANOMALY":268.1838,"EPHEMERIS_TYPE":0,"CLASSIFICATION_TYPE":"U","NORAD_CAT_ID":68592,"ELEMENT_SET_NO":999,"REV_AT_EPOCH":130,"BSTAR":-0.00066381966,"MEAN_MOTION_DOT":-0.00024027,"MEAN_MOTION_DDOT":0},{"OBJECT_NAME":"KUIPER-00293","OBJECT_ID":"2026-072W","EPOCH":"2026-04-12T06:00:02.000160","MEAN_MOTION":15.35675666,"ECCENTRICITY":0.00120683,"INCLINATION":51.8632,"RA_OF_ASC_NODE":135.9101,"ARG_OF_PERICENTER":151.3128,"MEAN_ANOMALY":251.1955,"EPHEMERIS_TYPE":0,"CLASSIFICATION_TYPE":"U","NORAD_CAT_ID":68593,"ELEMENT_SET_NO":999,"REV_AT_EPOCH":130,"BSTAR":-0.0006699985,"MEAN_MOTION_DOT":-0.00023976,"MEAN_MOTION_DDOT":0},{"OBJECT_NAME":"KUIPER-00294","OBJECT_ID":"2026-072X","EPOCH":"2026-04-12T06:00:02.000160","MEAN_MOTION":15.36219813,"ECCENTRICITY":0.00098894,"INCLINATION":51.8674,"RA_OF_ASC_NODE":135.8772,"ARG_OF_PERICENTER":145.8584,"MEAN_ANOMALY":272.9721,"EPHEMERIS_TYPE":0,"CLASSIFICATION_TYPE":"U","NORAD_CAT_ID":68594,"ELEMENT_SET_NO":999,"REV_AT_EPOCH":158,"BSTAR":-0.00065998777,"MEAN_MOTION_DOT":-0.00024015,"MEAN_MOTION_DDOT":0},{"OBJECT_NAME":"KUIPER-00296","OBJECT_ID":"2026-072Y","EPOCH":"2026-04-12T06:00:02.000160","MEAN_MOTION":15.36609531,"ECCENTRICITY":0.00086489,"INCLINATION":51.8696,"RA_OF_ASC_NODE":135.8557,"ARG_OF_PERICENTER":139.6606,"MEAN_ANOMALY":289.5774,"EPHEMERIS_TYPE":0,"CLASSIFICATION_TYPE":"U","NORAD_CAT_ID":68595,"ELEMENT_SET_NO":999,"REV_AT_EPOCH":130,"BSTAR":-0.00064929571,"MEAN_MOTION_DOT":-0.00023917,"MEAN_MOTION_DDOT":0},{"OBJECT_NAME":"KUIPER-00297","OBJECT_ID":"2026-072Z","EPOCH":"2026-04-12T06:00:02.000160","MEAN_MOTION":15.36131898,"ECCENTRICITY":0.0010386,"INCLINATION":51.8622,"RA_OF_ASC_NODE":135.8833,"ARG_OF_PERICENTER":146.3584,"MEAN_ANOMALY":269.2461,"EPHEMERIS_TYPE":0,"CLASSIFICATION_TYPE":"U","NORAD_CAT_ID":68596,"ELEMENT_SET_NO":999,"REV_AT_EPOCH":225,"BSTAR":-0.0006623015,"MEAN_MOTION_DOT":-0.00024035,"MEAN_MOTION_DDOT":0}]
